<ion-header>
  <ion-navbar>
      <ion-buttons start>
        <button ion-button item-left icon-only>
          <ion-icon name="arrow-dropdown"></ion-icon>
        </button>
      </ion-buttons>

      <ion-title color = "primary">Hub - Zulu 15:00</ion-title>

      <ion-buttons end>
        <button ion-button icon-only>
          <ion-icon name="settings"></ion-icon>
        </button>
      </ion-buttons>
  </ion-navbar>
</ion-header>

<ion-content padding>
  <h3>KFJK</h3>
  <!-- <ion-card>

    <ion-card-header>
      METAR
    </ion-card-header>

    <ion-card-content>
      KJFK 070351Z 19012KT 10SM OVC065 05/M01 A3045 RMK AO2 RAB15E26 SLP311 P0000 T00501011
    </ion-card-content>

  </ion-card>

  <ion-card>

    <ion-card-header>
      TAF
    </ion-card-header>

    <ion-card-content>
      KJFK 070245Z 0703/0806 17007KT P6SM BKN060 OVC100<br>
        FM070900 14006KT P6SM BKN040 OVC070 <br>
        FM071100 18009KT P6SM VCSH BKN040 OVC070 <br>
        TEMPO 0714/0718 5SM -RA BR SCT020 BKN030 <br>
        FM071800 19014G20KT P6SM SCT040 OVC100 <br>
        FM080200 20017KT 3SM -SHRA BR BKN025 OVC040 WS020/24045KT <br>
    </ion-card-content>

  </ion-card> -->

<!-- -------------------------------------------------------------------------------- -->

  <ion-list>
    <ion-item>
      <h5>METAR</h5>
      <p>
        KJFK 070351Z 19012KT 10SM OVC065 05/M01 A3045 RMK AO2 RAB15E26 SLP311 P0000 T00501011
      </p>
    </ion-item>
    <ion-item>
      <h5>TAF</h5>
      <p>
        KJFK 070245Z 0703/0806 17007KT P6SM BKN060 OVC100<br>
          FM070900 14006KT P6SM BKN040 OVC070 <br>
          FM071100 18009KT P6SM VCSH BKN040 OVC070 <br>
          TEMPO 0714/0718 5SM -RA BR SCT020 BKN030 <br>
          FM071800 19014G20KT P6SM SCT040 OVC100 <br>
          FM080200 20017KT 3SM -SHRA BR BKN025 OVC040 WS020/24045KT <br>
      </p>
    </ion-item>
  </ion-list>

</ion-content>
